[{"OBJECT_NAME":"SKYKRAFT-1A","OBJECT_ID":"2023-001AX","EPOCH":"2026-03-09T17:03:19.828224","MEAN_MOTION":15.28083228,"ECCENTRICITY":0.00112767,"INCLINATION":97.3349,"RA_OF_ASC_NODE":127.629,"ARG_OF_PERICENTER":121.5092,"MEAN_ANOMALY":238.7251,"EPHEMERIS_TYPE":0,"CLASSIFICATION_TYPE":"U","NORAD_CAT_ID":55054,"ELEMENT_SET_NO":999,"REV_AT_EPOCH":17652,"BSTAR":0.0003006872,"MEAN_MOTION_DOT":8.177e-5,"MEAN_MOTION_DDOT":0},{"OBJECT_NAME":"STARLINK-35153","OBJECT_ID":"2025-210D","EPOCH":"2026-03-09T22:28:59.933856","MEAN_MOTION":15.30185898,"ECCENTRICITY":0.00011971,"INCLINATION":53.1578,"RA_OF_ASC_NODE":305.5975,"ARG_OF_PERICENTER":68.2463,"MEAN_ANOMALY":291.8665,"EPHEMERIS_TYPE":0,"CLASSIFICATION_TYPE":"U","NORAD_CAT_ID":65625,"ELEMENT_SET_NO":999,"REV_AT_EPOCH":2769,"BSTAR":0.0007348496,"MEAN_MOTION_DOT":0.00021458,"MEAN_MOTION_DDOT":0}]
